{"type": "FeatureCollection", "features": [ {"type": "Feature", "properties": {"norad_id": 66520, "name": "STARLINK-35952", "group": "last-30-days", "lat": 2.810500915224882, "lon": 86.60438690783033, "alt_km": 385.62457768531385, "timestamp": "2025-12-07T16:44:02.689929+00:00", "meta": {"OBJECT_NAME": "STARLINK-35952", "OBJECT_ID": "2025-265E", "EPOCH": "2025-12-07T00:00:02.000160", "MEAN_MOTION": 15.63366742, "ECCENTRICITY": 0.00016705, "INCLINATION": 43, "RA_OF_ASC_NODE": 87.7328, "ARG_OF_PERICENTER": 285.336, "MEAN_ANOMALY": 113.8571, "EPHEMERIS_TYPE": 0, "CLASSIFICATION_TYPE": "U", "NORAD_CAT_ID": 66520, "ELEMENT_SET_NO": 999, "REV_AT_EPOCH": 407, "BSTAR": -0.024174207, "MEAN_MOTION_DOT": -0.02010629, "MEAN_MOTION_DDOT": 0}, "tle": {"line1": "1 66520U 25265E   25341.00002315 -.02010629  00000+0 -24174-1 0  9995", "line2": "2 66520  43.0000  87.7328 0001670 285.3360 113.8571 15.63366742  4074"}}, "geometry": {"type": "Point", "coordinates": [86.60438690783033, 2.810500915224882]}}, {"type": "Feature", "properties": {"norad_id": 66521, "name": "STARLINK-35915", "group": "last-30-days", "lat": 4.114607065166529, "lon": 88.006501353542, "alt_km": 385.50914781850497, "timestamp": "2025-12-07T16:44:02.689940+00:00", "meta": {"OBJECT_NAME": "STARLINK-35915", "OBJECT_ID": "2025-265F", "EPOCH": "2025-12-07T00:00:02.000160", "MEAN_MOTION": 15.63368325, "ECCENTRICITY": 0.0001617, "INCLINATION": 43.0008, "RA_OF_ASC_NODE": 87.7273, "ARG_OF_PERICENTER": 285.2822, "MEAN_ANOMALY": 115.8275, "EPHEMERIS_TYPE": 0, "CLASSIFICATION_TYPE": "U", "NORAD_CAT_ID": 66521, "ELEMENT_SET_NO": 999, "REV_AT_EPOCH": 407, "BSTAR": -0.024196336, "MEAN_MOTION_DOT": -0.02012309, "MEAN_MOTION_DDOT": 0}, "tle": {"line1": "1 66521U 25265F   25341.00002315 -.02012309  00000+0 -24196-1 0  9997", "line2": "2 66521  43.0008  87.7273 0001617 285.2822 115.8275 15.63368325  4077"}}, "geometry": {"type": "Point", "coordinates": [88.006501353542, 4.114607065166529]}}, {"type": "Feature", "properties": {"norad_id": 66522, "name": "STARLINK-35946", "group": "last-30-days", "lat": 5.41667699011708, "lon": 89.41485823814313, "alt_km": 385.35680139901433, "timestamp": "2025-12-07T16:44:02.689953+00:00", "meta": {"OBJECT_NAME": "STARLINK-35946", "OBJECT_ID": "2025-265G", "EPOCH": "2025-12-07T00:00:02.000160", "MEAN_MOTION": 15.63369159, "ECCENTRICITY": 0.00016446, "INCLINATION": 43.0007, "RA_OF_ASC_NODE": 87.7229, "ARG_OF_PERICENTER": 285.7821, "MEAN_ANOMALY": 117.2436, "EPHEMERIS_TYPE": 0, "CLASSIFICATION_TYPE": "U", "NORAD_CAT_ID": 66522, "ELEMENT_SET_NO": 999, "REV_AT_EPOCH": 407, "BSTAR": -0.024205331, "MEAN_MOTION_DOT": -0.02013046, "MEAN_MOTION_DDOT": 0}, "tle": {"line1": "1 66522U 25265G   25341.00002315 -.02013046  00000+0 -24205-1 0  9998", "line2": "2 66522  43.0007  87.7229 0001644 285.7821 117.2436 15.63369159  4073"}}, "geometry": {"type": "Point", "coordinates": [89.41485823814313, 5.41667699011708]}}, {"type": "Feature", "properties": {"norad_id": 66523, "name": "STARLINK-35969", "group": "last-30-days", "lat": 6.715123459695762, "lon": 90.82848007904556, "alt_km": 385.28789510949537, "timestamp": "2025-12-07T16:44:02.689964+00:00", "meta": {"OBJECT_NAME": "STARLINK-35969", "OBJECT_ID": "2025-265H", "EPOCH": "2025-12-07T00:00:02.000160", "MEAN_MOTION": 15.63369587, "ECCENTRICITY": 0.00015901, "INCLINATION": 43.001, "RA_OF_ASC_NODE": 87.7181, "ARG_OF_PERICENTER": 284.0429, "MEAN_ANOMALY": 120.9005, "EPHEMERIS_TYPE": 0, "CLASSIFICATION_TYPE": "U", "NORAD_CAT_ID": 66523, "ELEMENT_SET_NO": 999, "REV_AT_EPOCH": 407, "BSTAR": -0.024217768, "MEAN_MOTION_DOT": -0.02013939, "MEAN_MOTION_DDOT": 0}, "tle": {"line1": "1 66523U 25265H   25341.00002315 -.02013939  00000+0 -24218-1 0  9994", "line2": "2 66523  43.0010  87.7181 0001590 284.0429 120.9005 15.63369587  4079"}}, "geometry": {"type": "Point", "coordinates": [90.82848007904556, 6.715123459695762]}}, {"type": "Feature", "properties": {"norad_id": 66524, "name": "STARLINK-35687", "group": "last-30-days", "lat": 8.00981488498466, "lon": 92.24982515816828, "alt_km": 385.13994132735115, "timestamp": "2025-12-07T16:44:02.689974+00:00", "meta": {"OBJECT_NAME": "STARLINK-35687", "OBJECT_ID": "2025-265J", "EPOCH": "2025-12-07T00:00:02.000160", "MEAN_MOTION": 15.63370164, "ECCENTRICITY": 0.0001607, "INCLINATION": 43.0009, "RA_OF_ASC_NODE": 87.713, "ARG_OF_PERICENTER": 284.3903, "MEAN_ANOMALY": 122.47, "EPHEMERIS_TYPE": 0, "CLASSIFICATION_TYPE": "U", "NORAD_CAT_ID": 66524, "ELEMENT_SET_NO": 999, "REV_AT_EPOCH": 407, "BSTAR": -0.024229133, "MEAN_MOTION_DOT": -0.02014821, "MEAN_MOTION_DDOT": 0}, "tle": {"line1": "1 66524U 25265J   25341.00002315 -.02014821  00000+0 -24229-1 0  9998", "line2": "2 66524  43.0009  87.7130 0001607 284.3903 122.4700 15.63370164  4073"}}, "geometry": {"type": "Point", "coordinates": [92.24982515816828, 8.00981488498466]}}, {"type": "Feature", "properties": {"norad_id": 66525, "name": "STARLINK-35975", "group": "last-30-days", "lat": 9.300881077817069, "lon": 93.68211630874171, "alt_km": 385.02484938967336, "timestamp": "2025-12-07T16:44:02.689984+00:00", "meta": {"OBJECT_NAME": "STARLINK-35975", "OBJECT_ID": "2025-265K", "EPOCH": "2025-12-07T00:00:02.000160", "MEAN_MOTION": 15.63365555, "ECCENTRICITY": 0.0001623, "INCLINATION": 43.0005, "RA_OF_ASC_NODE": 87.7082, "ARG_OF_PERICENTER": 283.4418, "MEAN_ANOMALY": 125.3397, "EPHEMERIS_TYPE": 0, "CLASSIFICATION_TYPE": "U", "NORAD_CAT_ID": 66525, "ELEMENT_SET_NO": 999, "REV_AT_EPOCH": 407, "BSTAR": -0.024175986, "MEAN_MOTION_DOT": -0.02010637, "MEAN_MOTION_DDOT": 0}, "tle": {"line1": "1 66525U 25265K   25341.00002315 -.02010637  00000+0 -24176-1 0  9991", "line2": "2 66525  43.0005  87.7082 0001623 283.4418 125.3397 15.63365555  4077"}}, "geometry": {"type": "Point", "coordinates": [93.68211630874171, 9.300881077817069]}}, {"type": "Feature", "properties": {"norad_id": 66526, "name": "STARLINK-35932", "group": "last-30-days", "lat": 10.584678412141233, "lon": 95.12331063661573, "alt_km": 384.81165297336065, "timestamp": "2025-12-07T16:44:02.689994+00:00", "meta": {"OBJECT_NAME": "STARLINK-35932", "OBJECT_ID": "2025-265L", "EPOCH": "2025-12-07T00:00:02.000160", "MEAN_MOTION": 15.63368416, "ECCENTRICITY": 0.00015856, "INCLINATION": 43.0006, "RA_OF_ASC_NODE": 87.7035, "ARG_OF_PERICENTER": 285.744, "MEAN_ANOMALY": 124.9509, "EPHEMERIS_TYPE": 0, "CLASSIFICATION_TYPE": "U", "NORAD_CAT_ID": 66526, "ELEMENT_SET_NO": 999, "REV_AT_EPOCH": 396, "BSTAR": -0.024196977, "MEAN_MOTION_DOT": -0.02012338, "MEAN_MOTION_DDOT": 0}, "tle": {"line1": "1 66526U 25265L   25341.00002315 -.02012338  00000+0 -24197-1 0  9995", "line2": "2 66526  43.0006  87.7035 0001585 285.7440 124.9509 15.63368416  3960"}}, "geometry": {"type": "Point", "coordinates": [95.12331063661573, 10.584678412141233]}}, {"type": "Feature", "properties": {"norad_id": 66527, "name": "STARLINK-35935", "group": "last-30-days", "lat": 11.883621127437195, "lon": 96.60270597929372, "alt_km": 384.4859613886729, "timestamp": "2025-12-07T16:44:02.690004+00:00", "meta": {"OBJECT_NAME": "STARLINK-35935", "OBJECT_ID": "2025-265M", "EPOCH": "2025-12-06T22:00:01.999584", "MEAN_MOTION": 15.63723459, "ECCENTRICITY": 0.00015633, "INCLINATION": 43.0001, "RA_OF_ASC_NODE": 88.1966, "ARG_OF_PERICENTER": 278.4149, "MEAN_ANOMALY": 24.5743, "EPHEMERIS_TYPE": 0, "CLASSIFICATION_TYPE": "U", "NORAD_CAT_ID": 66527, "ELEMENT_SET_NO": 999, "REV_AT_EPOCH": 405, "BSTAR": -0.023705241, "MEAN_MOTION_DOT": -0.02001111, "MEAN_MOTION_DDOT": 0}, "tle": {"line1": "1 66527U 25265M   25340.91668981 -.02001111  00000+0 -23705-1 0  9993", "line2": "2 66527  43.0001  88.1966 0001563 278.4149  24.5743 15.63723459  4053"}}, "geometry": {"type": "Point", "coordinates": [96.60270597929372, 11.883621127437195]}}, {"type": "Feature", "properties": {"norad_id": 66528, "name": "STARLINK-35928", "group": "last-30-days", "lat": 13.154213151472362, "lon": 98.07097667362534, "alt_km": 384.33760946235634, "timestamp": "2025-12-07T16:44:02.690014+00:00", "meta": {"OBJECT_NAME": "STARLINK-35928", "OBJECT_ID": "2025-265N", "EPOCH": "2025-12-06T22:00:01.999584", "MEAN_MOTION": 15.63719757, "ECCENTRICITY": 0.00015794, "INCLINATION": 43.0002, "RA_OF_ASC_NODE": 88.1916, "ARG_OF_PERICENTER": 278.5665, "MEAN_ANOMALY": 26.3439, "EPHEMERIS_TYPE": 0, "CLASSIFICATION_TYPE": "U", "NORAD_CAT_ID": 66528, "ELEMENT_SET_NO": 999, "REV_AT_EPOCH": 405, "BSTAR": -0.023672318, "MEAN_MOTION_DOT": -0.01998425, "MEAN_MOTION_DDOT": 0}, "tle": {"line1": "1 66528U 25265N   25340.91668981 -.01998425  00000+0 -23672-1 0  9999", "line2": "2 66528  43.0002  88.1916 0001579 278.5665  26.3439 15.63719757  4059"}}, "geometry": {"type": "Point", "coordinates": [98.07097667362534, 13.154213151472362]}}, {"type": "Feature", "properties": {"norad_id": 66529, "name": "STARLINK-35933", "group": "last-30-days", "lat": 14.415122587600784, "lon": 99.55295494494398, "alt_km": 384.22399673689324, "timestamp": "2025-12-07T16:44:02.690024+00:00", "meta": {"OBJECT_NAME": "STARLINK-35933", "OBJECT_ID": "2025-265P", "EPOCH": "2025-12-06T22:00:01.999584", "MEAN_MOTION": 15.63720956, "ECCENTRICITY": 0.00016211, "INCLINATION": 43.0002, "RA_OF_ASC_NODE": 88.1864, "ARG_OF_PERICENTER": 278.067, "MEAN_ANOMALY": 28.7603, "EPHEMERIS_TYPE": 0, "CLASSIFICATION_TYPE": "U", "NORAD_CAT_ID": 66529, "ELEMENT_SET_NO": 999, "REV_AT_EPOCH": 405, "BSTAR": -0.023694876, "MEAN_MOTION_DOT": -0.02000213, "MEAN_MOTION_DDOT": 0}, "tle": {"line1": "1 66529U 25265P   25340.91668981 -.02000213  00000+0 -23695-1 0  9995", "line2": "2 66529  43.0002  88.1864 0001621 278.0670  28.7603 15.63720956  4053"}}, "geometry": {"type": "Point", "coordinates": [99.55295494494398, 14.415122587600784]}}]}